[
  {
    "OBJECT_NAME": "STARLINK-32878",
    "OBJECT_ID": "25024P",
    "EPOCH": "2025-11-11T06:28:15.533472",
    "MEAN_MOTION": 15.27642905,
    "ECCENTRICITY": 0.0001136,
    "INCLINATION": 43.0024,
    "RA_OF_ASC_NODE": 274.2697,
    "ARG_OF_PERICENTER": 264.2781,
    "MEAN_ANOMALY": 95.7941,
    "EPHEMERIS_TYPE": 0,
    "CLASSIFICATION_TYPE": "U",
    "NORAD_CAT_ID": 62892,
    "ELEMENT_SET_NO": 999,
    "REV_AT_EPOCH": 4415,
    "BSTAR": 0.0022446,
    "MEAN_MOTION_DOT": 0.00062144,
    "MEAN_MOTION_DDOT": 0.0,
    "TLE_LINE1": "1 62892U 25024P   25315.26962423  .00062144  00000+0  22446-2 0  9996",
    "TLE_LINE2": "2 62892  43.0024 274.2697 0001136 264.2781  95.7941 15.27642905 44150",
    "COMMENT": "Grouped by shell and plane from TLE"
  },
  {
    "OBJECT_NAME": "STARLINK-32892",
    "OBJECT_ID": "25024Q",
    "EPOCH": "2025-11-11T06:33:49.310496",
    "MEAN_MOTION": 15.2762756,
    "ECCENTRICITY": 0.0001424,
    "INCLINATION": 43.0019,
    "RA_OF_ASC_NODE": 274.2962,
    "ARG_OF_PERICENTER": 260.0791,
    "MEAN_ANOMALY": 99.99,
    "EPHEMERIS_TYPE": 0,
    "CLASSIFICATION_TYPE": "U",
    "NORAD_CAT_ID": 62893,
    "ELEMENT_SET_NO": 999,
    "REV_AT_EPOCH": 4415,
    "BSTAR": 0.0021306,
    "MEAN_MOTION_DOT": 0.00058922,
    "MEAN_MOTION_DDOT": 0.0,
    "TLE_LINE1": "1 62893U 25024Q   25315.27348739  .00058922  00000+0  21306-2 0  9999",
    "TLE_LINE2": "2 62893  43.0019 274.2962 0001424 260.0791  99.9900 15.27627560 44156",
    "COMMENT": "Grouped by shell and plane from TLE"
  },
  {
    "OBJECT_NAME": "STARLINK-32909",
    "OBJECT_ID": "25024R",
    "EPOCH": "2025-11-11T06:43:03.756576",
    "MEAN_MOTION": 15.27628472,
    "ECCENTRICITY": 9.6e-05,
    "INCLINATION": 43.0019,
    "RA_OF_ASC_NODE": 274.3469,
    "ARG_OF_PERICENTER": 251.4857,
    "MEAN_ANOMALY": 108.589,
    "EPHEMERIS_TYPE": 0,
    "CLASSIFICATION_TYPE": "U",
    "NORAD_CAT_ID": 62894,
    "ELEMENT_SET_NO": 999,
    "REV_AT_EPOCH": 4415,
    "BSTAR": 0.0012203000000000001,
    "MEAN_MOTION_DOT": 0.00033519,
    "MEAN_MOTION_DDOT": 0.0,
    "TLE_LINE1": "1 62894U 25024R   25315.27990459  .00033519  00000+0  12203-2 0  9993",
    "TLE_LINE2": "2 62894  43.0019 274.3469 0000960 251.4857 108.5890 15.27628472 44159",
    "COMMENT": "Grouped by shell and plane from TLE"
  },
  {
    "OBJECT_NAME": "STARLINK-32901",
    "OBJECT_ID": "25024S",
    "EPOCH": "2025-11-11T06:02:21.270048",
    "MEAN_MOTION": 15.27637967,
    "ECCENTRICITY": 9.59e-05,
    "INCLINATION": 43.0001,
    "RA_OF_ASC_NODE": 274.1245,
    "ARG_OF_PERICENTER": 267.1436,
    "MEAN_ANOMALY": 92.9306,
    "EPHEMERIS_TYPE": 0,
    "CLASSIFICATION_TYPE": "U",
    "NORAD_CAT_ID": 62895,
    "ELEMENT_SET_NO": 999,
    "REV_AT_EPOCH": 4415,
    "BSTAR": 0.0021669,
    "MEAN_MOTION_DOT": 0.0005996,
    "MEAN_MOTION_DDOT": 0.0,
    "TLE_LINE1": "1 62895U 25024S   25315.25163507  .00059960  00000+0  21669-2 0  9992",
    "TLE_LINE2": "2 62895  43.0001 274.1245 0000959 267.1436  92.9306 15.27637967 44153",
    "COMMENT": "Grouped by shell and plane from TLE"
  },
  {
    "OBJECT_NAME": "STARLINK-32890",
    "OBJECT_ID": "25024T",
    "EPOCH": "2025-11-11T08:00:03.000384",
    "MEAN_MOTION": 15.27527962,
    "ECCENTRICITY": 0.000195,
    "INCLINATION": 43.0026,
    "RA_OF_ASC_NODE": 273.284,
    "ARG_OF_PERICENTER": 270.3969,
    "MEAN_ANOMALY": 342.401,
    "EPHEMERIS_TYPE": 0,
    "CLASSIFICATION_TYPE": "U",
    "NORAD_CAT_ID": 62896,
    "ELEMENT_SET_NO": 999,
    "REV_AT_EPOCH": 587,
    "BSTAR": 0.0033194,
    "MEAN_MOTION_DOT": 0.00092082,
    "MEAN_MOTION_DDOT": 0.0,
    "TLE_LINE1": "1 62896U 25024T   25315.33336806  .00092082  00000+0  33194-2 0  9994",
    "TLE_LINE2": "2 62896  43.0026 273.2840 0001950 270.3969 342.4010 15.27527962  5875",
    "COMMENT": "Grouped by shell and plane from TLE"
  },
  {
    "OBJECT_NAME": "STARLINK-32893",
    "OBJECT_ID": "25024U",
    "EPOCH": "2025-11-11T05:36:26.861472",
    "MEAN_MOTION": 15.27643434,
    "ECCENTRICITY": 0.0001871,
    "INCLINATION": 43.0018,
    "RA_OF_ASC_NODE": 273.9971,
    "ARG_OF_PERICENTER": 274.1252,
    "MEAN_ANOMALY": 85.9386,
    "EPHEMERIS_TYPE": 0,
    "CLASSIFICATION_TYPE": "U",
    "NORAD_CAT_ID": 62897,
    "ELEMENT_SET_NO": 999,
    "REV_AT_EPOCH": 4415,
    "BSTAR": 0.0023214000000000004,
    "MEAN_MOTION_DOT": 0.00064301,
    "MEAN_MOTION_DDOT": 0.0,
    "TLE_LINE1": "1 62897U 25024U   25315.23364423  .00064301  00000+0  23214-2 0  9995",
    "TLE_LINE2": "2 62897  43.0018 273.9971 0001871 274.1252  85.9386 15.27643434 44150",
    "COMMENT": "Grouped by shell and plane from TLE"
  },
  {
    "OBJECT_NAME": "STARLINK-32902",
    "OBJECT_ID": "25024V",
    "EPOCH": "2025-11-11T07:05:02.986080",
    "MEAN_MOTION": 15.27621917,
    "ECCENTRICITY": 0.0001092,
    "INCLINATION": 43.0008,
    "RA_OF_ASC_NODE": 273.5939,
    "ARG_OF_PERICENTER": 266.4031,
    "MEAN_ANOMALY": 93.6696,
    "EPHEMERIS_TYPE": 0,
    "CLASSIFICATION_TYPE": "U",
    "NORAD_CAT_ID": 62898,
    "ELEMENT_SET_NO": 999,
    "REV_AT_EPOCH": 4416,
    "BSTAR": 0.0009560100000000001,
    "MEAN_MOTION_DOT": 0.00026172,
    "MEAN_MOTION_DDOT": 0.0,
    "TLE_LINE1": "1 62898U 25024V   25315.29517345  .00026172  00000+0  95601-3 0  9999",
    "TLE_LINE2": "2 62898  43.0008 273.5939 0001092 266.4031  93.6696 15.27621917 44167",
    "COMMENT": "Grouped by shell and plane from TLE"
  },
  {
    "OBJECT_NAME": "STARLINK-32661",
    "OBJECT_ID": "25024W",
    "EPOCH": "2025-11-11T06:07:54.308352",
    "MEAN_MOTION": 15.27623707,
    "ECCENTRICITY": 0.0001254,
    "INCLINATION": 43.0005,
    "RA_OF_ASC_NODE": 274.1541,
    "ARG_OF_PERICENTER": 259.9624,
    "MEAN_ANOMALY": 100.1086,
    "EPHEMERIS_TYPE": 0,
    "CLASSIFICATION_TYPE": "U",
    "NORAD_CAT_ID": 62899,
    "ELEMENT_SET_NO": 999,
    "REV_AT_EPOCH": 4415,
    "BSTAR": 0.0014052000000000001,
    "MEAN_MOTION_DOT": 0.00038661,
    "MEAN_MOTION_DDOT": 0.0,
    "TLE_LINE1": "1 62899U 25024W   25315.25548968  .00038661  00000+0  14052-2 0  9997",
    "TLE_LINE2": "2 62899  43.0005 274.1541 0001254 259.9624 100.1086 15.27623707 44151",
    "COMMENT": "Grouped by shell and plane from TLE"
  },
  {
    "OBJECT_NAME": "STARLINK-32959",
    "OBJECT_ID": "25076A",
    "EPOCH": "2025-11-11T06:20:55.252032",
    "MEAN_MOTION": 15.2762952,
    "ECCENTRICITY": 4.9e-05,
    "INCLINATION": 43.0017,
    "RA_OF_ASC_NODE": 274.4762,
    "ARG_OF_PERICENTER": 266.9897,
    "MEAN_ANOMALY": 93.0899,
    "EPHEMERIS_TYPE": 0,
    "CLASSIFICATION_TYPE": "U",
    "NORAD_CAT_ID": 63569,
    "ELEMENT_SET_NO": 999,
    "REV_AT_EPOCH": 3367,
    "BSTAR": 0.0015065999999999999,
    "MEAN_MOTION_DOT": 0.00041491,
    "MEAN_MOTION_DDOT": 0.0,
    "TLE_LINE1": "1 63569U 25076A   25315.26452838  .00041491  00000+0  15066-2 0  9991",
    "TLE_LINE2": "2 63569  43.0017 274.4762 0000490 266.9897  93.0899 15.27629520 33674",
    "COMMENT": "Grouped by shell and plane from TLE"
  },
  {
    "OBJECT_NAME": "STARLINK-32956",
    "OBJECT_ID": "25076B",
    "EPOCH": "2025-11-11T06:31:48.661536",
    "MEAN_MOTION": 15.27627585,
    "ECCENTRICITY": 6.91e-05,
    "INCLINATION": 43.0015,
    "RA_OF_ASC_NODE": 273.6701,
    "ARG_OF_PERICENTER": 260.2797,
    "MEAN_ANOMALY": 99.7977,
    "EPHEMERIS_TYPE": 0,
    "CLASSIFICATION_TYPE": "U",
    "NORAD_CAT_ID": 63570,
    "ELEMENT_SET_NO": 999,
    "REV_AT_EPOCH": 3367,
    "BSTAR": 0.0013987,
    "MEAN_MOTION_DOT": 0.00038484,
    "MEAN_MOTION_DDOT": 0.0,
    "TLE_LINE1": "1 63570U 25076B   25315.27209099  .00038484  00000+0  13987-2 0  9991",
    "TLE_LINE2": "2 63570  43.0015 273.6701 0000691 260.2797  99.7977 15.27627585 33676",
    "COMMENT": "Grouped by shell and plane from TLE"
  },
  {
    "OBJECT_NAME": "STARLINK-33722",
    "OBJECT_ID": "25076C",
    "EPOCH": "2025-11-11T06:52:50.602656",
    "MEAN_MOTION": 15.27627445,
    "ECCENTRICITY": 0.0001414,
    "INCLINATION": 43.0019,
    "RA_OF_ASC_NODE": 270.2563,
    "ARG_OF_PERICENTER": 255.4434,
    "MEAN_ANOMALY": 104.6261,
    "EPHEMERIS_TYPE": 0,
    "CLASSIFICATION_TYPE": "U",
    "NORAD_CAT_ID": 63571,
    "ELEMENT_SET_NO": 999,
    "REV_AT_EPOCH": 3371,
    "BSTAR": 0.0012116,
    "MEAN_MOTION_DOT": 0.00033277,
    "MEAN_MOTION_DDOT": 0.0,
    "TLE_LINE1": "1 63571U 25076C   25315.28669679  .00033277  00000+0  12116-2 0  9995",
    "TLE_LINE2": "2 63571  43.0019 270.2563 0001414 255.4434 104.6261 15.27627445 33710",
    "COMMENT": "Grouped by shell and plane from TLE"
  },
  {
    "OBJECT_NAME": "STARLINK-33739",
    "OBJECT_ID": "25076D",
    "EPOCH": "2025-11-11T06:08:38.736096",
    "MEAN_MOTION": 15.27644147,
    "ECCENTRICITY": 0.0001085,
    "INCLINATION": 43.0023,
    "RA_OF_ASC_NODE": 270.8847,
    "ARG_OF_PERICENTER": 247.6526,
    "MEAN_ANOMALY": 112.4211,
    "EPHEMERIS_TYPE": 0,
    "CLASSIFICATION_TYPE": "U",
    "NORAD_CAT_ID": 63572,
    "ELEMENT_SET_NO": 999,
    "REV_AT_EPOCH": 3371,
    "BSTAR": 0.0023135,
    "MEAN_MOTION_DOT": 0.00064081,
    "MEAN_MOTION_DDOT": 0.0,
    "TLE_LINE1": "1 63572U 25076D   25315.25600389  .00064081  00000+0  23135-2 0  9996",
    "TLE_LINE2": "2 63572  43.0023 270.8847 0001085 247.6526 112.4211 15.27644147 33716",
    "COMMENT": "Grouped by shell and plane from TLE"
  },
  {
    "OBJECT_NAME": "STARLINK-33683",
    "OBJECT_ID": "25076E",
    "EPOCH": "2025-11-11T06:06:47.663712",
    "MEAN_MOTION": 15.27612752,
    "ECCENTRICITY": 0.0001306,
    "INCLINATION": 43.0021,
    "RA_OF_ASC_NODE": 270.8732,
    "ARG_OF_PERICENTER": 249.2371,
    "MEAN_ANOMALY": 110.8341,
    "EPHEMERIS_TYPE": 0,
    "CLASSIFICATION_TYPE": "U",
    "NORAD_CAT_ID": 63573,
    "ELEMENT_SET_NO": 999,
    "REV_AT_EPOCH": 3371,
    "BSTAR": 0.0020972,
    "MEAN_MOTION_DOT": 0.00057961,
    "MEAN_MOTION_DDOT": 0.0,
    "TLE_LINE1": "1 63573U 25076E   25315.25471833  .00057961  00000+0  20972-2 0  9992",
    "TLE_LINE2": "2 63573  43.0021 270.8732 0001306 249.2371 110.8341 15.27612752 33713",
    "COMMENT": "Grouped by shell and plane from TLE"
  }
]